[{"OBJECT_NAME":"STARLINK-2040","OBJECT_ID":"2021-012AN","EPOCH":"2026-03-09T05:27:02.755872","MEAN_MOTION":15.29358641,"ECCENTRICITY":0.00013955,"INCLINATION":53.1596,"RA_OF_ASC_NODE":51.6846,"ARG_OF_PERICENTER":87.6283,"MEAN_ANOMALY":272.4877,"EPHEMERIS_TYPE":0,"CLASSIFICATION_TYPE":"U","NORAD_CAT_ID":47656,"ELEMENT_SET_NO":999,"REV_AT_EPOCH":28022,"BSTAR":6.79193e-7,"MEAN_MOTION_DOT":-3.36e-6,"MEAN_MOTION_DDOT":0},{"OBJECT_NAME":"COSMOS 1953","OBJECT_ID":"1988-050A","EPOCH":"2026-03-09T18:09:26.993952","MEAN_MOTION":15.28528086,"ECCENTRICITY":0.00124769,"INCLINATION":82.5105,"RA_OF_ASC_NODE":158.18,"ARG_OF_PERICENTER":122.2454,"MEAN_ANOMALY":237.9996,"EPHEMERIS_TYPE":0,"CLASSIFICATION_TYPE":"U","NORAD_CAT_ID":19210,"ELEMENT_SET_NO":999,"REV_AT_EPOCH":3779,"BSTAR":0.00029210954,"MEAN_MOTION_DOT":8.158e-5,"MEAN_MOTION_DDOT":0}]
